{
  "type": "FeatureCollection",
  "features": [
    {
      "type": "Feature",
      "properties": {
        "norad_id": 41866,
        "name": "GOES 16",
        "group": "weather",
        "lat": 0.056548310591966744,
        "lon": 144.8366072988761,
        "alt_km": 35792.512400049425,
        "timestamp": "2025-12-17T10:52:53.991714+00:00",
        "meta_object_name": "GOES 16",
        "meta_object_id": "2016-071A",
        "meta_epoch": "2025-12-16T16:16:59.254176",
        "meta_mean_motion": 1.00271844,
        "meta_eccentricity": 0.00030459,
        "meta_inclination": 0.0729,
        "meta_ra_of_asc_node": 102.6701,
        "meta_arg_of_pericenter": 162.1995,
        "meta_mean_anomaly": 320.2671,
        "meta_ephemeris_type": 0,
        "meta_classification_type": "U",
        "meta_norad_cat_id": 41866,
        "meta_element_set_no": 999,
        "meta_rev_at_epoch": 3327,
        "meta_bstar": 0,
        "meta_mean_motion_dot": -6.7e-07,
        "meta_mean_motion_ddot": 0,
        "tle_line1": "1 41866U 16071A   25350.67846359 -.00000067  00000+0  00000+0 0  9995",
        "tle_line2": "2 41866   0.0729 102.6701 0003045 162.1995 320.2671  1.00271844 33270"
      },
      "geometry": {
        "type": "Point",
        "coordinates": [
          144.8366072988761,
          0.056548310591966744
        ]
      }
    },
    {
      "type": "Feature",
      "properties": {
        "norad_id": 41882,
        "name": "FENGYUN 4A",
        "group": "weather",
        "lat": -1.7249828383903432,
        "lon": 13.366549951911916,
        "alt_km": 35803.53105449311,
        "timestamp": "2025-12-17T10:52:53.991727+00:00",
        "meta_object_name": "FENGYUN 4A",
        "meta_object_id": "2016-077A",
        "meta_epoch": "2025-12-16T20:47:41.500320",
        "meta_mean_motion": 1.00267969,
        "meta_eccentricity": 0.00045475,
        "meta_inclination": 1.8596,
        "meta_ra_of_asc_node": 82.3532,
        "meta_arg_of_pericenter": 143.9569,
        "meta_mean_anomaly": 295.1544,
        "meta_ephemeris_type": 0,
        "meta_classification_type": "U",
        "meta_norad_cat_id": 41882,
        "meta_element_set_no": 999,
        "meta_rev_at_epoch": 3310,
        "meta_bstar": 0,
        "meta_mean_motion_dot": -3.34e-06,
        "meta_mean_motion_ddot": 0,
        "tle_line1": "1 41882U 16077A   25350.86645255 -.00000334  00000+0  00000+0 0  9999",
        "tle_line2": "2 41882   1.8596  82.3532 0004547 143.9569 295.1544  1.00267969 33101"
      },
      "geometry": {
        "type": "Point",
        "coordinates": [
          13.366549951911916,
          -1.7249828383903432
        ]
      }
    },
    {
      "type": "Feature",
      "properties": {
        "norad_id": 41884,
        "name": "CYGFM05",
        "group": "weather",
        "lat": 16.774445809696093,
        "lon": 41.8947161531415,
        "alt_km": 426.54678711079214,
        "timestamp": "2025-12-17T10:52:53.991739+00:00",
        "meta_object_name": "CYGFM05",
        "meta_object_id": "2016-078A",
        "meta_epoch": "2025-12-16T19:16:17.827104",
        "meta_mean_motion": 15.47787701,
        "meta_eccentricity": 0.00106122,
        "meta_inclination": 34.9606,
        "meta_ra_of_asc_node": 20.5861,
        "meta_arg_of_pericenter": 219.7107,
        "meta_mean_anomaly": 140.2838,
        "meta_ephemeris_type": 0,
        "meta_classification_type": "U",
        "meta_norad_cat_id": 41884,
        "meta_element_set_no": 999,
        "meta_rev_at_epoch": 50039,
        "meta_bstar": 0.00031112713,
        "meta_mean_motion_dot": 0.00016662,
        "meta_mean_motion_ddot": 0,
        "tle_line1": "1 41884U 16078A   25350.80298411  .00016662  00000+0  31113-3 0  9997",
        "tle_line2": "2 41884  34.9606  20.5861 0010612 219.7107 140.2838 15.47787701500394"
      },
      "geometry": {
        "type": "Point",
        "coordinates": [
          41.8947161531415,
          16.774445809696093
        ]
      }
    },
    {
      "type": "Feature",
      "properties": {
        "norad_id": 41885,
        "name": "CYGFM04",
        "group": "weather",
        "lat": -23.3001744077519,
        "lon": -47.11844130865243,
        "alt_km": 413.6088208364299,
        "timestamp": "2025-12-17T10:52:53.991750+00:00",
        "meta_object_name": "CYGFM04",
        "meta_object_id": "2016-078B",
        "meta_epoch": "2025-12-16T10:20:43.990080",
        "meta_mean_motion": 15.50515269,
        "meta_eccentricity": 0.00097252,
        "meta_inclination": 34.9357,
        "meta_ra_of_asc_node": 357.6863,
        "meta_arg_of_pericenter": 242.1046,
        "meta_mean_anomaly": 117.8692,
        "meta_ephemeris_type": 0,
        "meta_classification_type": "U",
        "meta_norad_cat_id": 41885,
        "meta_element_set_no": 999,
        "meta_rev_at_epoch": 50051,
        "meta_bstar": 0.00031804069,
        "meta_mean_motion_dot": 0.00018758,
        "meta_mean_motion_ddot": 0,
        "tle_line1": "1 41885U 16078B   25350.43106470  .00018758  00000+0  31804-3 0  9995",
        "tle_line2": "2 41885  34.9357 357.6863 0009725 242.1046 117.8692 15.50515269500513"
      },
      "geometry": {
        "type": "Point",
        "coordinates": [
          -47.11844130865243,
          -23.3001744077519
        ]
      }
    },
    {
      "type": "Feature",
      "properties": {
        "norad_id": 41886,
        "name": "CYGFM02",
        "group": "weather",
        "lat": -4.035209900566854,
        "lon": -16.55660970156671,
        "alt_km": 411.9227153758011,
        "timestamp": "2025-12-17T10:52:53.991761+00:00",
        "meta_object_name": "CYGFM02",
        "meta_object_id": "2016-078C",
        "meta_epoch": "2025-12-16T10:12:37.362816",
        "meta_mean_motion": 15.51905682,
        "meta_eccentricity": 0.00114072,
        "meta_inclination": 34.9445,
        "meta_ra_of_asc_node": 356.0013,
        "meta_arg_of_pericenter": 242.1395,
        "meta_mean_anomaly": 117.8172,
        "meta_ephemeris_type": 0,
        "meta_classification_type": "U",
        "meta_norad_cat_id": 41886,
        "meta_element_set_no": 999,
        "meta_rev_at_epoch": 50064,
        "meta_bstar": 0.00032556405,
        "meta_mean_motion_dot": 0.00020205,
        "meta_mean_motion_ddot": 0,
        "tle_line1": "1 41886U 16078C   25350.42543244  .00020205  00000+0  32556-3 0  9994",
        "tle_line2": "2 41886  34.9445 356.0013 0011407 242.1395 117.8172 15.51905682500649"
      },
      "geometry": {
        "type": "Point",
        "coordinates": [
          -16.55660970156671,
          -4.035209900566854
        ]
      }
    },
    {
      "type": "Feature",
      "properties": {
        "norad_id": 41887,
        "name": "CYGFM01",
        "group": "weather",
        "lat": 34.7308136230883,
        "lon": 101.77890314869913,
        "alt_km": 419.78486022392644,
        "timestamp": "2025-12-17T10:52:53.991772+00:00",
        "meta_object_name": "CYGFM01",
        "meta_object_id": "2016-078D",
        "meta_epoch": "2025-12-16T19:02:41.335008",
        "meta_mean_motion": 15.48371848,
        "meta_eccentricity": 0.00101659,
        "meta_inclination": 34.9438,
        "meta_ra_of_asc_node": 22.969,
        "meta_arg_of_pericenter": 212.0114,
        "meta_mean_anomaly": 147.999,
        "meta_ephemeris_type": 0,
        "meta_classification_type": "U",
        "meta_norad_cat_id": 41887,
        "meta_element_set_no": 999,
        "meta_rev_at_epoch": 50033,
        "meta_bstar": 0.0003105455,
        "meta_mean_motion_dot": 0.00016974,
        "meta_mean_motion_ddot": 0,
        "tle_line1": "1 41887U 16078D   25350.79353397  .00016974  00000+0  31055-3 0  9994",
        "tle_line2": "2 41887  34.9438  22.9690 0010165 212.0114 147.9990 15.48371848500332"
      },
      "geometry": {
        "type": "Point",
        "coordinates": [
          101.77890314869913,
          34.7308136230883
        ]
      }
    },
    {
      "type": "Feature",
      "properties": {
        "norad_id": 41888,
        "name": "CYGFM08",
        "group": "weather",
        "lat": 14.855716120895526,
        "lon": 159.26636724663334,
        "alt_km": 414.33473354727994,
        "timestamp": "2025-12-17T10:52:53.991783+00:00",
        "meta_object_name": "CYGFM08",
        "meta_object_id": "2016-078E",
        "meta_epoch": "2025-12-16T11:01:46.701984",
        "meta_mean_motion": 15.49574229,
        "meta_eccentricity": 0.0011879,
        "meta_inclination": 34.9468,
        "meta_ra_of_asc_node": 8.1021,
        "meta_arg_of_pericenter": 231.9734,
        "meta_mean_anomaly": 127.9916,
        "meta_ephemeris_type": 0,
        "meta_classification_type": "U",
        "meta_norad_cat_id": 41888,
        "meta_element_set_no": 999,
        "meta_rev_at_epoch": 50051,
        "meta_bstar": 0.00032230052,
        "meta_mean_motion_dot": 0.000184,
        "meta_mean_motion_ddot": 0,
        "tle_line1": "1 41888U 16078E   25350.45956831  .00018400  00000+0  32230-3 0  9992",
        "tle_line2": "2 41888  34.9468   8.1021 0011879 231.9734 127.9916 15.49574229500516"
      },
      "geometry": {
        "type": "Point",
        "coordinates": [
          159.26636724663334,
          14.855716120895526
        ]
      }
    }
  ]
}